NORAD_CAT_ID,OBJECT_NAME,OBJECT_TYPE,EPOCH,MEAN_MOTION,ECCENTRICITY,INCLINATION,RA_OF_ASC_NODE,ARG_OF_PERICENTER,MEAN_ANOMALY,BSTAR,MEAN_MOTION_DOT,MEAN_MOTION_DDOT,TLE_LINE0,TLE_LINE1,TLE_LINE2,SEMIMAJOR_AXIS,PERIOD,APOGEE,PERIGEE,DECAYED
53147.0,STARLINK-4094,PAYLOAD,2024-03-29 11:17:48,15.08852413,0.000146,53.2161,122.4166,86.41,273.7059,0.00011055,1.472e-05,0.0,0 STARLINK-4094,1 53147U 22083R   24089.47069850  .00001472  00000-0  11055-3 0  9996,2 53147  53.2161 122.4166 0001460  86.4100 273.7059 15.08852413 94656,6917.842,95.437,540.717,538.697,0.0
53147.0,STARLINK-4094,PAYLOAD,2024-03-29 19:14:43,15.08849355,0.0001356,53.2155,120.9286,84.954,275.1607,4.9877e-05,5.06e-06,0.0,0 STARLINK-4094,1 53147U 22083R   24089.80189775  .00000506  00000-0  49877-4 0  9993,2 53147  53.2155 120.9286 0001356  84.9540 275.1607 15.08849355 94689,6917.852,95.437,540.655,538.779,0.0
53147.0,STARLINK-4094,PAYLOAD,2024-03-30 09:33:12,15.0885175,0.0001432,53.2161,118.2526,88.579,271.5367,5.7594e-05,6.29e-06,0.0,0 STARLINK-4094,1 53147U 22083R   24090.39805815  .00000629  00000-0  57594-4 0  9990,2 53147  53.2161 118.2526 0001432  88.5790 271.5367 15.08851750 94792,6917.844,95.437,540.7,538.719,0.0
53147.0,STARLINK-4094,PAYLOAD,2024-03-30 20:40:54,15.08846102,0.0001442,53.2157,116.1708,82.5289,277.5867,1.7273e-05,-1.3e-07,0.0,0 STARLINK-4094,1 53147U 22083R   24090.86173998 -.00000013  00000-0  17273-4 0  9990,2 53147  53.2157 116.1708 0001442  82.5289 277.5867 15.08846102 94846,6917.862,95.437,540.724,538.729,0.0
53147.0,STARLINK-4094,PAYLOAD,2024-03-31 07:48:36,15.08844214,0.0001499,53.2159,114.089,83.386,276.7303,6.4799e-05,7.44e-06,0.0,0 STARLINK-4094,1 53147U 22083R   24091.32541897  .00000744  00000-0  64799-4 0  9994,2 53147  53.2159 114.0890 0001499  83.3860 276.7303 15.08844214 94931,6917.868,95.437,540.769,538.696,0.0
53147.0,STARLINK-4094,PAYLOAD,2024-03-31 18:56:17,15.08848125,0.0001419,53.2159,112.0074,83.9577,276.1576,5.548e-06,-2e-06,0.0,0 STARLINK-4094,1 53147U 22083R   24091.78909526 -.00000200  00000-0  55480-5 0  9997,2 53147  53.2159 112.0074 0001419  83.9577 276.1576 15.08848125 95006,6917.856,95.437,540.702,538.739,0.0
53147.0,STARLINK-4094,PAYLOAD,2024-04-01 10:50:09,15.08847873,0.000149,53.2164,109.0331,91.2497,268.8666,4.8143e-05,4.78e-06,0.0,0 STARLINK-4094,1 53147U 22083R   24092.45149421  .00000478  00000-0  48143-4 0  9995,2 53147  53.2164 109.0331 0001490  91.2497 268.8666 15.08847873 95081,6917.856,95.437,540.752,538.691,0.0
53147.0,STARLINK-4094,PAYLOAD,2024-04-02 01:08:38,15.08825263,0.0001327,53.2166,106.3543,99.8753,260.2389,0.00020339,2.949e-05,0.0,0 STARLINK-4094,1 53147U 22083R   24093.04766373  .00002949  00000-0  20339-3 0  9993,2 53147  53.2166 106.3543 0001327  99.8753 260.2389 15.08825263 95173,6917.925,95.438,540.708,538.872,0.0
53147.0,STARLINK-4094,PAYLOAD,2024-04-02 07:30:10,15.08831128,0.0001368,53.2164,105.1655,96.4605,263.6543,0.00017996,2.577e-05,0.0,0 STARLINK-4094,1 53147U 22083R   24093.31262229  .00002577  00000-0  17996-3 0  9996,2 53147  53.2164 105.1655 0001368  96.4605 263.6543 15.08831128 95239,6917.908,95.438,540.719,538.826,0.0
53147.0,STARLINK-4094,PAYLOAD,2024-04-03 07:20:55,15.08861988,0.000131,53.2163,100.705,86.9591,273.1551,0.00023636,3.478e-05,0.0,0 STARLINK-4094,1 53147U 22083R   24094.30620308  .00003478  00000-0  23636-3 0  9991,2 53147  53.2163 100.7050 0001310  86.9591 273.1551 15.08861988 95369,6917.813,95.436,540.584,538.772,0.0
53147.0,STARLINK-4094,PAYLOAD,2024-04-03 16:53:15,15.08848631,0.0001133,53.216,98.9203,79.5961,280.5159,0.00011867,1.602e-05,0.0,0 STARLINK-4094,1 53147U 22083R   24094.70365010  .00001602  00000-0  11867-3 0  9991,2 53147  53.2160  98.9203 0001133  79.5961 280.5159 15.08848631 95429,6917.854,95.437,540.503,538.935,0.0
53147.0,STARLINK-4094,PAYLOAD,2024-04-04 04:00:58,15.0883025,0.0001556,53.2178,96.8418,109.62,250.496,-1.3918e-05,-5.09e-06,0.0,0 STARLINK-4094,1 53147U 22083R   24095.16734730 -.00000509  00000-0 -13918-4 0  9998,2 53147  53.2178  96.8418 0001556 109.6200 250.4960 15.08830250 95494,6917.91,95.438,540.852,538.699,0.0
53147.0,STARLINK-4094,PAYLOAD,2024-04-04 10:22:31,15.08829706,0.0001303,53.2169,95.6521,100.4939,259.62,-1.6688e-05,-5.53e-06,0.0,0 STARLINK-4094,1 53147U 22083R   24095.43230916 -.00000553  00000-0 -16688-4 0  9991,2 53147  53.2169  95.6521 0001303 100.4939 259.6200 15.08829706 95553,6917.912,95.438,540.678,538.875,0.0
53147.0,STARLINK-4094,PAYLOAD,2024-04-04 16:44:04,15.08830129,0.0001333,53.2175,94.4628,99.6421,260.4722,1.1212e-05,-1.09e-06,0.0,0 STARLINK-4094,1 53147U 22083R   24095.69726941 -.00000109  00000-0  11212-4 0  9991,2 53147  53.2175  94.4628 0001333  99.6421 260.4722 15.08830129 95597,6917.911,95.438,540.698,538.853,0.0
53147.0,STARLINK-4094,PAYLOAD,2024-04-05 03:51:45,15.08850792,0.0001435,53.2186,92.3825,109.0478,251.0669,-0.0001316,-2.382e-05,0.0,0 STARLINK-4094,1 53147U 22083R   24096.16094506 -.00002382  00000-0 -13160-3 0  9998,2 53147  53.2186  92.3825 0001435 109.0478 251.0669 15.08850792 95646,6917.847,95.437,540.705,538.72,0.0
53147.0,STARLINK-4094,PAYLOAD,2024-04-05 08:37:54,15.08850013,0.0001172,53.217,91.4889,97.8187,262.2938,-0.00012163,-2.224e-05,0.0,0 STARLINK-4094,1 53147U 22083R   24096.35966389 -.00002224  00000-0 -12163-3 0  9993,2 53147  53.2170  91.4889 0001172  97.8187 262.2938 15.08850013 95692,6917.85,95.437,540.526,538.904,0.0
53147.0,STARLINK-4094,PAYLOAD,2024-04-05 16:34:50,15.0884827,0.0001159,53.2171,90.002,95.3211,264.7914,-0.00010417,-1.946e-05,0.0,0 STARLINK-4094,1 53147U 22083R   24096.69086295 -.00001946  00000-0 -10417-3 0  9999,2 53147  53.2171  90.0020 0001159  95.3211 264.7914 15.08848270 95740,6917.855,95.437,540.522,538.918,0.0
53147.0,STARLINK-4094,PAYLOAD,2024-04-06 03:42:32,15.08834423,0.0001164,53.2172,87.9204,100.0562,260.0562,0.0001192,1.609e-05,0.0,0 STARLINK-4094,1 53147U 22083R   24097.15454663  .00001609  00000-0  11920-3 0  9993,2 53147  53.2172  87.9204 0001164 100.0562 260.0562 15.08834423 95797,6917.897,95.438,540.568,538.957,0.0
53147.0,STARLINK-4094,PAYLOAD,2024-04-06 08:28:42,15.08838411,0.0001193,53.217,87.0282,98.5455,261.5672,0.00013658,1.886e-05,0.0,0 STARLINK-4094,1 53147U 22083R   24097.35326458  .00001886  00000-0  13658-3 0  9992,2 53147  53.2170  87.0282 0001193  98.5455 261.5672 15.08838411 95841,6917.885,95.438,540.576,538.925,0.0
53147.0,STARLINK-4094,PAYLOAD,2024-04-06 22:47:10,15.08835095,0.000131,53.2173,84.3505,91.2829,268.8313,4.3451e-05,4.04e-06,0.0,0 STARLINK-4094,1 53147U 22083R   24097.94943187  .00000404  00000-0  43451-4 0  9991,2 53147  53.2173  84.3505 0001310  91.2829 268.8313 15.08835095 95935,6917.895,95.438,540.667,538.854,0.0
53147.0,STARLINK-4094,PAYLOAD,2024-04-07 08:19:29,15.08842489,0.0001228,53.2173,82.5659,94.9197,265.1935,8.1614e-05,1.011e-05,0.0,0 STARLINK-4094,1 53147U 22083R   24098.34686683  .00001011  00000-0  81614-4 0  9999,2 53147  53.2173  82.5659 0001228  94.9197 265.1935 15.08842489 95970,6917.873,95.437,540.587,538.888,0.0
53147.0,STARLINK-4094,PAYLOAD,2024-04-07 16:16:25,15.0883811,0.000115,53.2167,81.0783,97.2465,262.8658,2.4424e-05,1.01e-06,0.0,0 STARLINK-4094,1 53147U 22083R   24098.67807072  .00000101  00000-0  24424-4 0  9997,2 53147  53.2167  81.0783 0001150  97.2465 262.8658 15.08838110 96044,6917.886,95.438,540.547,538.956,0.0
53147.0,STARLINK-4094,PAYLOAD,2024-04-08 04:59:30,15.08836901,0.000115,53.2167,78.6997,95.9232,264.1891,1.4672e-05,-5.4e-07,0.0,0 STARLINK-4094,1 53147U 22083R   24099.20799264 -.00000054  00000-0  14672-4 0  9992,2 53147  53.2167  78.6997 0001150  95.9232 264.1891 15.08836901 96107,6917.89,95.438,540.55,538.959,0.0
53147.0,STARLINK-4094,PAYLOAD,2024-04-08 22:28:45,15.08834408,0.0001174,53.2182,75.4292,95.1572,264.9555,0.00010298,1.351e-05,0.0,0 STARLINK-4094,1 53147U 22083R   24099.93663230  .00001351  00000-0  10298-3 0  9994,2 53147  53.2182  75.4292 0001174  95.1572 264.9555 15.08834408 96231,6917.897,95.438,540.575,538.95,0.0
53147.0,STARLINK-4094,PAYLOAD,2024-04-09 04:50:17,15.08842502,0.0001331,53.2179,74.2398,100.1499,259.9644,6.2089e-05,7e-06,0.0,0 STARLINK-4094,1 53147U 22083R   24100.20158874  .00000700  00000-0  62089-4 0  9993,2 53147  53.2179  74.2398 0001331 100.1499 259.9644 15.08842502 96250,6917.873,95.437,540.659,538.817,0.0
53147.0,STARLINK-4094,PAYLOAD,2024-04-09 22:19:31,15.08839805,0.0001287,53.2174,70.97,92.3606,267.7534,6.8519e-05,8.03e-06,0.0,0 STARLINK-4094,1 53147U 22083R   24100.93023018  .00000803  00000-0  68519-4 0  9992,2 53147  53.2174  70.9700 0001287  92.3606 267.7534 15.08839805 96388,6917.881,95.438,540.636,538.856,0.0
53147.0,STARLINK-4094,PAYLOAD,2024-04-10 07:51:50,15.08843328,0.0001316,53.2178,69.1855,94.6241,265.4902,8.5893e-05,1.079e-05,0.0,0 STARLINK-4094,1 53147U 22083R   24101.32766734  .00001079  00000-0  85893-4 0  9995,2 53147  53.2178  69.1855 0001316  94.6241 265.4902 15.08843328 96420,6917.87,95.437,540.646,538.825,0.0
53147.0,STARLINK-4094,PAYLOAD,2024-04-10 22:10:19,15.08835102,0.0001431,53.2181,66.5086,97.8522,262.2632,-2.6222e-05,-7.05e-06,0.0,0 STARLINK-4094,1 53147U 22083R   24101.92383701 -.00000705  00000-0 -26222-4 0  9998,2 53147  53.2181  66.5086 0001431  97.8522 262.2632 15.08835102 96534,6917.895,95.438,540.75,538.77,0.0
53147.0,STARLINK-4094,PAYLOAD,2024-04-11 04:31:52,15.08834217,0.0001445,53.2186,65.3231,96.2064,263.9093,-1.4417e-05,-5.17e-06,0.0,0 STARLINK-4094,1 53147U 22083R   24102.18879807 -.00000517  00000-0 -14417-4 0  9998,2 53147  53.2186  65.3231 0001445  96.2064 263.9093 15.08834217 96554,6917.898,95.438,540.763,538.763,0.0
53147.0,STARLINK-4094,PAYLOAD,2024-04-11 14:04:11,15.08833192,0.0001449,53.2187,63.5395,97.6036,262.5121,-3.2895e-05,-8.11e-06,0.0,0 STARLINK-4094,1 53147U 22083R   24102.58624081 -.00000811  00000-0 -32895-4 0  9991,2 53147  53.2187  63.5395 0001449  97.6036 262.5121 15.08833192 96631,6917.901,95.438,540.769,538.764,0.0
